[{"OBJECT_NAME":"STARLINK-5435","OBJECT_ID":"2022-175AR","EPOCH":"2026-03-09T08:59:40.583328","MEAN_MOTION":15.08817865,"ECCENTRICITY":0.00013284,"INCLINATION":53.2195,"RA_OF_ASC_NODE":45.378,"ARG_OF_PERICENTER":92.0824,"MEAN_ANOMALY":268.0321,"EPHEMERIS_TYPE":0,"CLASSIFICATION_TYPE":"U","NORAD_CAT_ID":54797,"ELEMENT_SET_NO":999,"REV_AT_EPOCH":17987,"BSTAR":3.3609114e-5,"MEAN_MOTION_DOT":2.47e-6,"MEAN_MOTION_DDOT":0},{"OBJECT_NAME":"CZ-6A R\/B","OBJECT_ID":"2022-031C","EPOCH":"2026-03-09T19:50:55.360896","MEAN_MOTION":15.07476837,"ECCENTRICITY":0.00174842,"INCLINATION":97.8104,"RA_OF_ASC_NODE":273.2347,"ARG_OF_PERICENTER":181.6412,"MEAN_ANOMALY":178.4761,"EPHEMERIS_TYPE":0,"CLASSIFICATION_TYPE":"U","NORAD_CAT_ID":52152,"ELEMENT_SET_NO":999,"REV_AT_EPOCH":21633,"BSTAR":0.00020233161,"MEAN_MOTION_DOT":3.012e-5,"MEAN_MOTION_DDOT":0}]
